start=new Date('2022-01-05T00:00:00.000Z').valueOf();
sats=[{"NORAD_CAT_ID":"49142","EPHEMERIS_TYPE":"0","GP_ID":"193189249","CLASSIFICATION_TYPE":"U","MEAN_MOTION":"15.69735914","FILE":"3263755","EPOCH":"2022-01-04T22:00:00.999936","OBJECT_ID":"2021-082N","TIME_SYSTEM":"UTC","MEAN_ELEMENT_THEORY":"SGP4","TLE_LINE1":"1 49142U 21082N   22004.91667824  .00052301  00000-0  43739-3 0  9994","BSTAR":"0.00043739000000","ECCENTRICITY":"0.00035950","OBJECT_NAME":"STARLINK-3042","INCLINATION":"69.9977","COUNTRY_CODE":"US","LAUNCH_DATE":"2021-09-14","DECAY_DATE":null,"TLE_LINE2":"2 49142  69.9977 169.8279 0003595 282.4503  87.8885 15.69735914 17807","MEAN_ANOMALY":"87.8885","CENTER_NAME":"EARTH","SEMIMAJOR_AXIS":"6737.790","RCS_SIZE":"LARGE","RA_OF_ASC_NODE":"169.8279","PERIOD":"91.735","PERIAPSIS":"357.232","ARG_OF_PERICENTER":"282.4503","REV_AT_EPOCH":"1780","OBJECT_TYPE":"PAYLOAD","REF_FRAME":"TEME","MEAN_MOTION_DDOT":"0.0000000000000","SITE":"AFWTR","ELEMENT_SET_NO":"999","APOAPSIS":"362.077","MEAN_MOTION_DOT":"0.00052301"},{"FILE":"3263755","MEAN_MOTION":"15.69719414","GP_ID":"193189253","CLASSIFICATION_TYPE":"U","EPHEMERIS_TYPE":"0","NORAD_CAT_ID":"49143","TIME_SYSTEM":"UTC","EPOCH":"2022-01-04T22:00:00.999936","OBJECT_ID":"2021-082P","BSTAR":"0.00041779000000","TLE_LINE1":"1 49143U 21082P   22004.91667824  .00049897  00000-0  41779-3 0  9993","MEAN_ELEMENT_THEORY":"SGP4","DECAY_DATE":null,"LAUNCH_DATE":"2021-09-14","COUNTRY_CODE":"US","INCLINATION":"69.9978","OBJECT_NAME":"STARLINK-3109","ECCENTRICITY":"0.00032930","SEMIMAJOR_AXIS":"6737.837","CENTER_NAME":"EARTH","MEAN_ANOMALY":"89.2185","TLE_LINE2":"2 49143  69.9978 169.8264 0003293 283.2275  89.2185 15.69719414 17809","REV_AT_EPOCH":"1780","ARG_OF_PERICENTER":"283.2275","PERIAPSIS":"357.483","RA_OF_ASC_NODE":"169.8264","PERIOD":"91.736","RCS_SIZE":"LARGE","MEAN_MOTION_DDOT":"0.0000000000000","REF_FRAME":"TEME","OBJECT_TYPE":"PAYLOAD","MEAN_MOTION_DOT":"0.00049897","APOAPSIS":"361.921","ELEMENT_SET_NO":"999","SITE":"AFWTR"},{"COUNTRY_CODE":"US","LAUNCH_DATE":"2021-09-14","DECAY_DATE":null,"ECCENTRICITY":"0.00033410","INCLINATION":"69.9985","OBJECT_NAME":"STARLINK-3100","BSTAR":"-0.00014642000000","MEAN_ELEMENT_THEORY":"SGP4","TLE_LINE1":"1 49144U 21082Q   22004.83815462 -.00001840  00000-0 -14642-3 0  9995","EPOCH":"2022-01-04T20:06:56.559168","OBJECT_ID":"2021-082Q","TIME_SYSTEM":"UTC","FILE":"3264067","NORAD_CAT_ID":"49144","EPHEMERIS_TYPE":"0","MEAN_MOTION":"14.98325604","GP_ID":"193217208","CLASSIFICATION_TYPE":"U","ELEMENT_SET_NO":"999","APOAPSIS":"574.394","MEAN_MOTION_DOT":"-0.00001840","SITE":"AFWTR","REF_FRAME":"TEME","MEAN_MOTION_DDOT":"0.0000000000000","OBJECT_TYPE":"PAYLOAD","PERIAPSIS":"569.749","ARG_OF_PERICENTER":"275.8117","REV_AT_EPOCH":"1757","RCS_SIZE":"LARGE","PERIOD":"96.107","RA_OF_ASC_NODE":"179.1442","CENTER_NAME":"EARTH","SEMIMAJOR_AXIS":"6950.206","TLE_LINE2":"2 49144  69.9985 179.1442 0003341 275.8117  84.2661 14.98325604 17579","MEAN_ANOMALY":"84.2661"},{"PERIAPSIS":"357.781","REV_AT_EPOCH":"1779","ARG_OF_PERICENTER":"257.7861","RA_OF_ASC_NODE":"169.9994","PERIOD":"91.734","RCS_SIZE":"LARGE","CENTER_NAME":"EARTH","SEMIMAJOR_AXIS":"6737.725","MEAN_ANOMALY":"102.3034","TLE_LINE2":"2 49145  70.0015 169.9994 0002685 257.7861 102.3034 15.69758470 17791","ELEMENT_SET_NO":"999","MEAN_MOTION_DOT":"-0.00001820","APOAPSIS":"361.399","SITE":"AFWTR","MEAN_MOTION_DDOT":"0.0000000000000","REF_FRAME":"TEME","OBJECT_TYPE":"PAYLOAD","TIME_SYSTEM":"UTC","EPOCH":"2022-01-04T20:22:55.673472","OBJECT_ID":"2021-082R","FILE":"3264067","EPHEMERIS_TYPE":"0","NORAD_CAT_ID":"49145","CLASSIFICATION_TYPE":"U","GP_ID":"193217960","MEAN_MOTION":"15.69758470","COUNTRY_CODE":"US","LAUNCH_DATE":"2021-09-14","DECAY_DATE":null,"ECCENTRICITY":"0.00026850","OBJECT_NAME":"STARLINK-3119","INCLINATION":"70.0015","BSTAR":"-0.00001347500000","MEAN_ELEMENT_THEORY":"SGP4","TLE_LINE1":"1 49145U 21082R   22004.84925548 -.00001820  00000-0 -13475-4 0  9996"},{"COUNTRY_CODE":"US","LAUNCH_DATE":"2021-09-14","DECAY_DATE":null,"ECCENTRICITY":"0.00030480","OBJECT_NAME":"STARLINK-3116","INCLINATION":"70.0003","BSTAR":"-0.00003810100000","MEAN_ELEMENT_THEORY":"SGP4","TLE_LINE1":"1 49146U 21082S   22004.84963949 -.00004755  00000-0 -38101-4 0  9997","EPOCH":"2022-01-04T20:23:28.851936","OBJECT_ID":"2021-082S","TIME_SYSTEM":"UTC","FILE":"3264067","NORAD_CAT_ID":"49146","EPHEMERIS_TYPE":"0","MEAN_MOTION":"15.69737669","GP_ID":"193217711","CLASSIFICATION_TYPE":"U","ELEMENT_SET_NO":"999","APOAPSIS":"361.703","MEAN_MOTION_DOT":"-0.00004755","SITE":"AFWTR","REF_FRAME":"TEME","MEAN_MOTION_DDOT":"0.0000000000000","OBJECT_TYPE":"PAYLOAD","PERIAPSIS":"357.596","ARG_OF_PERICENTER":"269.3338","REV_AT_EPOCH":"1895","RCS_SIZE":"LARGE","RA_OF_ASC_NODE":"170.0041","PERIOD":"91.735","CENTER_NAME":"EARTH","SEMIMAJOR_AXIS":"6737.785","TLE_LINE2":"2 49146  70.0003 170.0041 0003048 269.3338  90.7508 15.69737669 18959","MEAN_ANOMALY":"90.7508"},{"SITE":"AFWTR","ELEMENT_SET_NO":"999","APOAPSIS":"362.027","MEAN_MOTION_DOT":"0.00051998","OBJECT_TYPE":"PAYLOAD","REF_FRAME":"TEME","MEAN_MOTION_DDOT":"0.0000000000000","RCS_SIZE":"LARGE","PERIOD":"91.735","RA_OF_ASC_NODE":"169.8157","PERIAPSIS":"357.271","ARG_OF_PERICENTER":"281.4810","REV_AT_EPOCH":"1897","TLE_LINE2":"2 49147  70.0003 169.8157 0003529 281.4810  93.1236 15.69737944 18971","MEAN_ANOMALY":"93.1236","CENTER_NAME":"EARTH","SEMIMAJOR_AXIS":"6737.784","ECCENTRICITY":"0.00035290","OBJECT_NAME":"STARLINK-3071","INCLINATION":"70.0003","LAUNCH_DATE":"2021-09-14","COUNTRY_CODE":"US","DECAY_DATE":null,"MEAN_ELEMENT_THEORY":"SGP4","TLE_LINE1":"1 49147U 21082T   22004.91667824  .00051998  00000-0  43485-3 0  9998","BSTAR":"0.00043485000000","EPOCH":"2022-01-04T22:00:00.999936","OBJECT_ID":"2021-082T","TIME_SYSTEM":"UTC","NORAD_CAT_ID":"49147","EPHEMERIS_TYPE":"0","CLASSIFICATION_TYPE":"U","GP_ID":"193188875","MEAN_MOTION":"15.69737944","FILE":"3263722"},{"INCLINATION":"69.9976","OBJECT_NAME":"STARLINK-3048","ECCENTRICITY":"0.00037760","DECAY_DATE":null,"LAUNCH_DATE":"2021-09-14","COUNTRY_CODE":"US","TLE_LINE1":"1 49148U 21082U   22004.84850260  .00011342  00000-0  96683-4 0  9997","MEAN_ELEMENT_THEORY":"SGP4","BSTAR":"0.00009668300000","EPOCH":"2022-01-04T20:21:50.624640","OBJECT_ID":"2021-082U","TIME_SYSTEM":"UTC","GP_ID":"193216709","MEAN_MOTION":"15.69741664","CLASSIFICATION_TYPE":"U","EPHEMERIS_TYPE":"0","NORAD_CAT_ID":"49148","FILE":"3264067","SITE":"AFWTR","APOAPSIS":"362.182","MEAN_MOTION_DOT":"0.00011342","ELEMENT_SET_NO":"999","OBJECT_TYPE":"PAYLOAD","REF_FRAME":"TEME","MEAN_MOTION_DDOT":"0.0000000000000","RCS_SIZE":"LARGE","PERIOD":"91.735","RA_OF_ASC_NODE":"169.9999","ARG_OF_PERICENTER":"280.4397","REV_AT_EPOCH":"1779","PERIAPSIS":"357.094","TLE_LINE2":"2 49148  69.9976 169.9999 0003776 280.4397  79.6373 15.69741664 17790","MEAN_ANOMALY":"79.6373","SEMIMAJOR_AXIS":"6737.773","CENTER_NAME":"EARTH"},{"TLE_LINE1":"1 49149U 21082V   22004.90014519 -.00001506  00000-0 -11849-3 0  9997","MEAN_ELEMENT_THEORY":"SGP4","BSTAR":"-0.00011849000000","INCLINATION":"69.9955","OBJECT_NAME":"STARLINK-3053","ECCENTRICITY":"0.00032310","DECAY_DATE":null,"LAUNCH_DATE":"2021-09-14","COUNTRY_CODE":"US","GP_ID":"193217461","MEAN_MOTION":"14.98324960","CLASSIFICATION_TYPE":"U","NORAD_CAT_ID":"49149","EPHEMERIS_TYPE":"0","FILE":"3264067","TIME_SYSTEM":"UTC","OBJECT_ID":"2021-082V","EPOCH":"2022-01-04T21:36:12.544416","OBJECT_TYPE":"PAYLOAD","MEAN_MOTION_DDOT":"0.0000000000000","REF_FRAME":"TEME","SITE":"AFWTR","MEAN_MOTION_DOT":"-0.00001506","APOAPSIS":"574.319","ELEMENT_SET_NO":"999","MEAN_ANOMALY":"78.8929","TLE_LINE2":"2 49149  69.9955 179.0028 0003231 281.1866  78.8929 14.98324960 18772","SEMIMAJOR_AXIS":"6950.208","CENTER_NAME":"EARTH","RA_OF_ASC_NODE":"179.0028","PERIOD":"96.107","RCS_SIZE":"LARGE","REV_AT_EPOCH":"1877","ARG_OF_PERICENTER":"281.1866","PERIAPSIS":"569.828"},{"OBJECT_TYPE":"PAYLOAD","MEAN_MOTION_DDOT":"0.0000000000000","REF_FRAME":"TEME","SITE":"AFWTR","ELEMENT_SET_NO":"999","MEAN_MOTION_DOT":"0.00001960","APOAPSIS":"574.287","MEAN_ANOMALY":"78.1285","TLE_LINE2":"2 49150  69.9945 179.0146 0003235 281.9511  78.1285 14.98336255 18771","CENTER_NAME":"EARTH","SEMIMAJOR_AXIS":"6950.174","PERIOD":"96.107","RA_OF_ASC_NODE":"179.0146","RCS_SIZE":"LARGE","PERIAPSIS":"569.790","REV_AT_EPOCH":"1877","ARG_OF_PERICENTER":"281.9511","MEAN_ELEMENT_THEORY":"SGP4","TLE_LINE1":"1 49150U 21082W   22004.89538293  .00001960  00000-0  17197-3 0  9991","BSTAR":"0.00017197000000","ECCENTRICITY":"0.00032350","OBJECT_NAME":"STARLINK-3104","INCLINATION":"69.9945","COUNTRY_CODE":"US","LAUNCH_DATE":"2021-09-14","DECAY_DATE":null,"NORAD_CAT_ID":"49150","EPHEMERIS_TYPE":"0","CLASSIFICATION_TYPE":"U","GP_ID":"193218211","MEAN_MOTION":"14.98336255","FILE":"3264067","TIME_SYSTEM":"UTC","OBJECT_ID":"2021-082W","EPOCH":"2022-01-04T21:29:21.085152"},{"SITE":"AFWTR","APOAPSIS":"362.079","MEAN_MOTION_DOT":"-0.00003769","ELEMENT_SET_NO":"999","OBJECT_TYPE":"PAYLOAD","REF_FRAME":"TEME","MEAN_MOTION_DDOT":"0.0000000000000","RCS_SIZE":"LARGE","RA_OF_ASC_NODE":"169.9920","PERIOD":"91.735","ARG_OF_PERICENTER":"273.1510","REV_AT_EPOCH":"1899","PERIAPSIS":"357.219","TLE_LINE2":"2 49151  69.9984 169.9920 0003606 273.1510  86.9272 15.69737877 18998","MEAN_ANOMALY":"86.9272","SEMIMAJOR_AXIS":"6737.784","CENTER_NAME":"EARTH","INCLINATION":"69.9984","OBJECT_NAME":"STARLINK-3102","ECCENTRICITY":"0.00036060","DECAY_DATE":null,"LAUNCH_DATE":"2021-09-14","COUNTRY_CODE":"US","TLE_LINE1":"1 49151U 21082X   22004.84812831 -.00003769  00000-0 -29823-4 0  9991","MEAN_ELEMENT_THEORY":"SGP4","BSTAR":"-0.00002982300000","OBJECT_ID":"2021-082X","EPOCH":"2022-01-04T20:21:18.285984","TIME_SYSTEM":"UTC","GP_ID":"193216959","MEAN_MOTION":"15.69737877","CLASSIFICATION_TYPE":"U","NORAD_CAT_ID":"49151","EPHEMERIS_TYPE":"0","FILE":"3264067"}];
